<!DOCTYPE HTML PUBLIC "-//W3C//DTD HTML 4.0//EN">
<HTML>
<HEAD>
   <TITLE> Pseudo-MPEC for ZTF10Db </TITLE>
   <META http-equiv=Content-Type content="text/html; charset=utf-8">
   <style type="text/css">
   .neocp {color:black; background-color:black; text-decoration:blink;}
   .whtext {color:white;}
   </style>
</HEAD>
<BODY>

<P><b>  "Pseudo-MPEC" for ZTF10Db </b></p>

<p><i> Created 2026 Apr 26  6:15:49 UT using <a href="https://www.projectpluto.com/find_orb.htm">Find_Orb</a></i></p>
<p><i> <a href="https://www.projectpluto.com/mpec_xpl.htm"> Click here for an
   explanation of pseudo-MPECs </a> </i> </p>

<ul>
<li> <a href="#ast"> Astrometry </a> </li>
<li> <a href="#stations"> Observing stations </a> </li>
<li> <a href="#elements"> Orbital elements </a> </li>
<li> <a href="#residuals"> Residuals in arcseconds </a> </li>
<li> <a href="#eph"> Ephemeris </a> </li>

<li> <a href="https://cgi.minorplanetcenter.net/cgi-bin/showobsorbs.cgi?Obj=ZTF10Db&amp;obs=y"> Astrometry (from NEOCP,  if available) </a> </li>
<li> <a href="https://cneos.jpl.nasa.gov/scout/#/object/ZTF10Db"> 'Scout' (JPL) information </a> </li>
<li> <a href="https://neofixer.arizona.edu/site/500/ZTF10Db"> NEOfixer information </a> </li>
</ul>
<p>
<input type = "button" value = "Orbit Simulator View" onclick = "window.open('http://orbitsimulator.com/gravitySimulatorCloud/yr/gsim2023.html?sv,1,ZTF10Db,2461155.50,-124726140349.511566,-85141365403.036148,69925036.968953,-4803.385062,-37692.346651,-295.713851,0,0,00FF00,90,65,,16000,0,12,1,0,27.731790,0.150000')">
</p>
<pre> <a name="ast"></a>
<a href="https://www.projectpluto.com/mpec_xpl.htm#astrometry"> <b>Astrometry:</b> </a>
<a name="o001"></a><a href="#r001">     ZTF10Db</a>*0C2026 04 25.25290913 03 19.730-03 47 51.03Duplicat!      UNEOCP<a href="#stn_I41">I41</a>
<a name="o002"></a><a href="#r002">     ZTF10Db</a> 0C2026 04 25.25290913 03 20.895-03 48 09.77Duplicat!      UNEOCP<a href="#stn_I41">I41</a>
<a name="o003"></a><a href="#r003">     ZTF10Db</a> 0C2026 04 25.25325913 03 21.484-03 48 10.78Duplicat!      UNEOCP<a href="#stn_I41">I41</a>
<a name="o004"></a><a href="#r004">     ZTF10Db</a> 0C2026 04 25.25325913 03 22.776-03 48 30.74Duplicat!      UNEOCP<a href="#stn_I41">I41</a>
<a name="o005"></a><a href="#r005">     ZTF10Db</a> 0C2026 04 25.25385313 03 25.339-03 48 56.62   ~4P85 17.84RUNEOCP<a href="#stn_I41">I41</a>
<a name="o006"></a><a href="#r006">     ZTF10Db</a> 0C2026 04 25.25420013 03 27.150-03 49 17.14   ~4P85 17.84RUNEOCP<a href="#stn_I41">I41</a>
<a name="o007"></a><a href="#r007">     ZTF10Db</a> 0C2026 04 25.28339813 05 57.380-04 17 07.65   ~4P85 17.80iUNEOCP<a href="#stn_I41">I41</a>
<a name="o008"></a><a href="#r008">     ZTF10Db</a> 0C2026 04 25.28374513 05 59.022-04 17 25.92   ~4P85 17.80iUNEOCP<a href="#stn_I41">I41</a>
<a name="stations"></a>
<a href="https://www.projectpluto.com/mpec_xpl.htm#stns"><b>Station data:
</b></a><a name="stn_I41"></a>(I41) <a href="http://ptf.caltech.edu">Palomar Mountain--ZTF</a>  (<a title="Click for map" href="http://maps.google.com/maps?q=33.35734,+-116.85978">N33.357336 W116.859780</a>)  US/California.
   Observers B. T. <a href="https://ssd.jpl.nasa.gov/tools/sbdb_lookup.html#/?sstr=42177&amp;view=OPD">Bolin</a>, Z. T. F. Collaboration. Measurers B. T. Bolin,
   Z.-Y. Lin, F. J. <a href="https://ssd.jpl.nasa.gov/tools/sbdb_lookup.html#/?sstr=438973&amp;view=OPD">Masci</a>. 1.2-m f/2.4 Schmidt.
<a name="elements"></a>
<a href="https://www.projectpluto.com/mpec_xpl.htm#elems"><b>Orbital elements:  ZTF10Db</b></a>
   Perigee 2026 Apr 24.74024 +/- 27.7 TT = 17:45:56 (JD 2461155.24024)
Epoch 2026 Apr 25.0 TT = JDT 2461155.5                           Find_Orb
q316803.947 +/- 3.15e+7             (J2000 equator)
H   27.73 G 0.15                    Peri.  112.19350 +/- 59
                                    Node    10.69128 +/- 70
e 491.3461695 +/- 0.24              Incl.   35.32427 +/- 1.1
4 of 8 observations 2026 Apr. 25 (43.0 min); mean residual 0".37
# State vector (heliocentric equatorial J2000):
#   -0.833742751591  -0.522356967476  -0.225960002351 AU
#   -2.774187008352 -19.904870269943  -8.815967155675 mAU/day
# State vector relative to central body:
#   -0.004262875303  -0.000350677653   0.000316244092 AU
#  -12.231147762552  -6.832472124330  -3.149907308677 mAU/day
# Elements written: 26 Apr 2026  6:15:49 (JD 2461156.760993)
# Full range of obs: 2026 Apr. 25 (44.4 min) (8 observations)
# Find_Orb ver: 2026 Mar 01
# Perturbers: 00000001 ;  JPL DE-440
# Barbee-style encounter velocity: 24.7637 km/s
# Diameter 11.7 meters (assuming 10% albedo)
# Score: 0.573591
#  $Name=ZTF10Db  $Ty=2026  $Tm=03  $Td=11.599453  $MA=9.20328
#  $ecc=0.8196281  $Eqnx=2000.
#  $a=2.8276989  $Peri=81.90252  $Node=36.77004  $Incl=0.62020
#  $EpJD=2461155.500  $q=0.510037  $T=2461111.099454  $H=27.7
# Sigmas avail: 3
</pre> <!-- State vector (heliocentric equatorial J2000): -->
<!--   -0.833742751591  -0.522356967476  -0.225960002351 AU -->
<!--   -2.774187008352 -19.904870269943  -8.815967155675 mAU/day -->
<!-- State vector relative to central body: -->
<!--   -0.004262875303  -0.000350677653   0.000316244092 AU -->
<!--  -12.231147762552  -6.832472124330  -3.149907308677 mAU/day -->
<!-- Elements written: 26 Apr 2026  6:15:49 (JD 2461156.760993) -->
<!-- Full range of obs: 2026 Apr. 25 (44.4 min) (8 observations) -->
<!-- Find_Orb ver: 2026 Mar 01 -->
<!-- Perturbers: 00000001 ;  JPL DE-440 -->
<!-- Barbee-style encounter velocity: 24.7637 km/s -->
<!-- Diameter 11.7 meters (assuming 10% albedo) -->
<!-- Score: 0.573591 -->
<!--  $Name=ZTF10Db  $Ty=2026  $Tm=03  $Td=11.599453  $MA=9.20328 -->
<!--  $ecc=0.8196281  $Eqnx=2000. -->
<!--  $a=2.8276989  $Peri=81.90252  $Node=36.77004  $Incl=0.62020 -->
<!--  $EpJD=2461155.500  $q=0.510037  $T=2461111.099454  $H=27.7 -->
<!-- Sigmas avail: 3 -->
<pre><b><a name="residuals"></a><a href="https://www.projectpluto.com/mpec_xpl.htm#resids">Residuals in arcseconds:</a> </b>
<a name="r001"></a><a href="#o001">260425</a> <a href="#stn_I41">I41</a>( .00   .00 )   <a name="r004"></a><a href="#o004">260425</a> <a href="#stn_I41">I41</a>( .00   .00 )   <a name="r007"></a><a href="#o007">260425</a> <a href="#stn_I41">I41</a>  .40+  .28-    
<a name="r002"></a><a href="#o002">260425</a> <a href="#stn_I41">I41</a>( .00   .00 )   <a name="r005"></a><a href="#o005">260425</a> <a href="#stn_I41">I41</a>  .51+  .20-    <a name="r008"></a><a href="#o008">260425</a> <a href="#stn_I41">I41</a>  .39-  .27+    
<a name="r003"></a><a href="#o003">260425</a> <a href="#stn_I41">I41</a>( .00   .00 )   <a name="r006"></a><a href="#o006">260425</a> <a href="#stn_I41">I41</a>  .52-  .21+    

<a name="eph"></a><a href="https://www.projectpluto.com/mpec_xpl.htm#ephems"><b>Ephemerides (geocentric):</b></a>
Date (UTC) HH:MM   RA             Dec           delta  r     elong  mag  "/min    PA  
---- -----------  ------------   ------------  ------ ------ -----  --- ------- ------
2026 01 01 00:00  22 12 26.925   -11 20 36.22  1.7490 1.3605  50.8 31.0   1.115  68.6 
2026 01 01 00:10  22 12 27.630   -11 20 32.14  1.7490 1.3604  50.8 31.0   1.115  68.6 
2026 01 01 00:20  22 12 28.336   -11 20 28.07  1.7490 1.3603  50.8 31.0   1.115  68.6 
2026 01 01 00:30  22 12 29.041   -11 20 24.00  1.7489 1.3602  50.8 31.0   1.115  68.6 
2026 01 01 00:40  22 12 29.747   -11 20 19.92  1.7489 1.3601  50.8 31.0   1.115  68.6 
2026 01 01 00:50  22 12 30.452   -11 20 15.85  1.7489 1.3600  50.8 31.0   1.115  68.6 
2026 01 01 01:00  22 12 31.158   -11 20 11.77  1.7489 1.3599  50.8 31.0   1.115  68.6 
2026 01 01 01:10  22 12 31.863   -11 20 07.70  1.7488 1.3598  50.7 31.0   1.115  68.6 
2026 01 01 01:20  22 12 32.569   -11 20 03.62  1.7488 1.3597  50.7 31.0   1.116  68.6 
2026 01 01 01:30  22 12 33.275   -11 19 59.54  1.7488 1.3596  50.7 31.0   1.116  68.6 
2026 01 01 01:40  22 12 33.981   -11 19 55.47  1.7487 1.3595  50.7 31.0   1.116  68.6 
2026 01 01 01:50  22 12 34.687   -11 19 51.39  1.7487 1.3594  50.7 31.0   1.116  68.6 
2026 01 01 02:00  22 12 35.393   -11 19 47.31  1.7487 1.3593  50.7 31.0   1.116  68.6 
2026 01 01 02:10  22 12 36.099   -11 19 43.23  1.7486 1.3592  50.7 31.0   1.116  68.6 
2026 01 01 02:20  22 12 36.805   -11 19 39.15  1.7486 1.3591  50.7 31.0   1.116  68.6 
2026 01 01 02:30  22 12 37.512   -11 19 35.07  1.7486 1.3591  50.7 31.0   1.116  68.6 
2026 01 01 02:40  22 12 38.218   -11 19 30.99  1.7485 1.3590  50.7 31.0   1.116  68.6 
2026 01 01 02:50  22 12 38.924   -11 19 26.91  1.7485 1.3589  50.7 31.0   1.117  68.6 
2026 01 01 03:00  22 12 39.631   -11 19 22.83  1.7485 1.3588  50.7 31.0   1.117  68.6 
2026 01 01 03:10  22 12 40.337   -11 19 18.75  1.7485 1.3587  50.7 31.0   1.117  68.6 
</pre>
<hr>
<p style="font-family: sans-serif; font-size: 0.9em;">
  <a href="https://www.projectpluto.com/neocp2/mpecs/ZTF10Db.htm" target="_blank" rel="noopener">Bill Gray&rsquo;s pseudo-MPEC for ZTF10Db &rarr;</a><br>
  <a href="../index.html">&larr; back to NEOCP artsat catalog</a>
</p>
</body></html>
